{
  "type": "FeatureCollection",
  "features": [
    {
      "type": "Feature",
      "properties": {
        "norad_id": 36585,
        "name": "GPS BIIF-1  (PRN 25)",
        "group": "gnss",
        "lat": 47.067781320716975,
        "lon": -15.1277869728409,
        "alt_km": 19960.109102984796,
        "timestamp": "2025-12-27T14:26:30.763517+00:00",
        "meta_object_name": "GPS BIIF-1  (PRN 25)",
        "meta_object_id": "2010-022A",
        "meta_epoch": "2025-12-27T03:27:39.235104",
        "meta_mean_motion": 2.00553872,
        "meta_eccentricity": 0.01266459,
        "meta_inclination": 54.298,
        "meta_ra_of_asc_node": 215.4929,
        "meta_arg_of_pericenter": 65.2561,
        "meta_mean_anomaly": 78.9222,
        "meta_ephemeris_type": 0,
        "meta_classification_type": "U",
        "meta_norad_cat_id": 36585,
        "meta_element_set_no": 999,
        "meta_rev_at_epoch": 11414,
        "meta_bstar": 0,
        "meta_mean_motion_dot": 8.9e-07,
        "meta_mean_motion_ddot": 0,
        "tle_line1": "1 36585U 10022A   25361.14420411  .00000089  00000+0  00000+0 0  9991",
        "tle_line2": "2 36585  54.2980 215.4929 0126645  65.2561  78.9222  2.00553872114141"
      },
      "geometry": {
        "type": "Point",
        "coordinates": [
          -15.1277869728409,
          47.067781320716975
        ]
      }
    },
    {
      "type": "Feature",
      "properties": {
        "norad_id": 36828,
        "name": "BEIDOU-2 IGSO-1 (C06)",
        "group": "gnss",
        "lat": -52.19703858767411,
        "lon": 52.62458096849276,
        "alt_km": 35628.08416197573,
        "timestamp": "2025-12-27T14:26:30.763530+00:00",
        "meta_object_name": "BEIDOU-2 IGSO-1 (C06)",
        "meta_object_id": "2010-036A",
        "meta_epoch": "2025-12-25T21:06:51.904224",
        "meta_mean_motion": 1.00272533,
        "meta_eccentricity": 0.00515074,
        "meta_inclination": 54.2892,
        "meta_ra_of_asc_node": 164.5291,
        "meta_arg_of_pericenter": 215.7944,
        "meta_mean_anomaly": 138.9488,
        "meta_ephemeris_type": 0,
        "meta_classification_type": "U",
        "meta_norad_cat_id": 36828,
        "meta_element_set_no": 999,
        "meta_rev_at_epoch": 5635,
        "meta_bstar": 0,
        "meta_mean_motion_dot": -5.2e-07,
        "meta_mean_motion_ddot": 0,
        "tle_line1": "1 36828U 10036A   25359.87976741 -.00000052  00000+0  00000+0 0  9996",
        "tle_line2": "2 36828  54.2892 164.5291 0051507 215.7944 138.9488  1.00272533 56350"
      },
      "geometry": {
        "type": "Point",
        "coordinates": [
          52.62458096849276,
          -52.19703858767411
        ]
      }
    },
    {
      "type": "Feature",
      "properties": {
        "norad_id": 37210,
        "name": "BEIDOU-2 G4 (C04)",
        "group": "gnss",
        "lat": 2.2161812676952883,
        "lon": 112.9276188108224,
        "alt_km": 35824.9033496516,
        "timestamp": "2025-12-27T14:26:30.763543+00:00",
        "meta_object_name": "BEIDOU-2 G4 (C04)",
        "meta_object_id": "2010-057A",
        "meta_epoch": "2025-12-27T05:12:12.626784",
        "meta_mean_motion": 1.0027119,
        "meta_eccentricity": 0.00105047,
        "meta_inclination": 3.2181,
        "meta_ra_of_asc_node": 69.8831,
        "meta_arg_of_pericenter": 194.1703,
        "meta_mean_anomaly": 70.0296,
        "meta_ephemeris_type": 0,
        "meta_classification_type": "U",
        "meta_norad_cat_id": 37210,
        "meta_element_set_no": 999,
        "meta_rev_at_epoch": 5556,
        "meta_bstar": 0,
        "meta_mean_motion_dot": -9.1e-07,
        "meta_mean_motion_ddot": 0,
        "tle_line1": "1 37210U 10057A   25361.21681281 -.00000091  00000+0  00000+0 0  9991",
        "tle_line2": "2 37210   3.2181  69.8831 0010504 194.1703  70.0296  1.00271190 55566"
      },
      "geometry": {
        "type": "Point",
        "coordinates": [
          112.9276188108224,
          2.2161812676952883
        ]
      }
    },
    {
      "type": "Feature",
      "properties": {
        "norad_id": 37256,
        "name": "BEIDOU-2 IGSO-2 (C07)",
        "group": "gnss",
        "lat": 24.11835150268563,
        "lon": 70.09544171044452,
        "alt_km": 35707.69291383188,
        "timestamp": "2025-12-27T14:26:30.763555+00:00",
        "meta_object_name": "BEIDOU-2 IGSO-2 (C07)",
        "meta_object_id": "2010-068A",
        "meta_epoch": "2025-12-26T15:56:02.027040",
        "meta_mean_motion": 1.00281973,
        "meta_eccentricity": 0.0048288,
        "meta_inclination": 47.8603,
        "meta_ra_of_asc_node": 273.9787,
        "meta_arg_of_pericenter": 215.9223,
        "meta_mean_anomaly": 312.6243,
        "meta_ephemeris_type": 0,
        "meta_classification_type": "U",
        "meta_norad_cat_id": 37256,
        "meta_element_set_no": 999,
        "meta_rev_at_epoch": 5506,
        "meta_bstar": 0,
        "meta_mean_motion_dot": -2.02e-06,
        "meta_mean_motion_ddot": 0,
        "tle_line1": "1 37256U 10068A   25360.66391235 -.00000202  00000+0  00000+0 0  9992",
        "tle_line2": "2 37256  47.8603 273.9787 0048288 215.9223 312.6243  1.00281973 55068"
      },
      "geometry": {
        "type": "Point",
        "coordinates": [
          70.09544171044452,
          24.11835150268563
        ]
      }
    },
    {
      "type": "Feature",
      "properties": {
        "norad_id": 37384,
        "name": "BEIDOU-2 IGSO-3 (C08)",
        "group": "gnss",
        "lat": 16.020642409407948,
        "lon": 50.526256960430814,
        "alt_km": 35931.69299734892,
        "timestamp": "2025-12-27T14:26:30.763567+00:00",
        "meta_object_name": "BEIDOU-2 IGSO-3 (C08)",
        "meta_object_id": "2011-013A",
        "meta_epoch": "2025-12-26T18:04:14.277792",
        "meta_mean_motion": 1.00267391,
        "meta_eccentricity": 0.00351191,
        "meta_inclination": 62.1613,
        "meta_ra_of_asc_node": 41.7837,
        "meta_arg_of_pericenter": 187.8187,
        "meta_mean_anomaly": 244.1436,
        "meta_ephemeris_type": 0,
        "meta_classification_type": "U",
        "meta_norad_cat_id": 37384,
        "meta_element_set_no": 999,
        "meta_rev_at_epoch": 5393,
        "meta_bstar": 0,
        "meta_mean_motion_dot": -1.71e-06,
        "meta_mean_motion_ddot": 0,
        "tle_line1": "1 37384U 11013A   25360.75294303 -.00000171  00000+0  00000+0 0  9998",
        "tle_line2": "2 37384  62.1613  41.7837 0035119 187.8187 244.1436  1.00267391 53938"
      },
      "geometry": {
        "type": "Point",
        "coordinates": [
          50.526256960430814,
          16.020642409407948
        ]
      }
    },
    {
      "type": "Feature",
      "properties": {
        "norad_id": 37605,
        "name": "GSAT-8 (GAGAN/PRN 127)",
        "group": "gnss",
        "lat": -1.636120488347984,
        "lon": 8.131716212738715,
        "alt_km": 35790.89067443788,
        "timestamp": "2025-12-27T14:26:30.763580+00:00",
        "meta_object_name": "GSAT-8 (GAGAN/PRN 127)",
        "meta_object_id": "2011-022A",
        "meta_epoch": "2025-12-27T04:42:15.496416",
        "meta_mean_motion": 1.00271973,
        "meta_eccentricity": 0.00091095,
        "meta_inclination": 1.6852,
        "meta_ra_of_asc_node": 84.0379,
        "meta_arg_of_pericenter": 187.0249,
        "meta_mean_anomaly": 310.5007,
        "meta_ephemeris_type": 0,
        "meta_classification_type": "U",
        "meta_norad_cat_id": 37605,
        "meta_element_set_no": 999,
        "meta_rev_at_epoch": 5149,
        "meta_bstar": 0,
        "meta_mean_motion_dot": 1.06e-06,
        "meta_mean_motion_ddot": 0,
        "tle_line1": "1 37605U 11022A   25361.19601269  .00000106  00000+0  00000+0 0  9993",
        "tle_line2": "2 37605   1.6852  84.0379 0009109 187.0249 310.5007  1.00271973 51491"
      },
      "geometry": {
        "type": "Point",
        "coordinates": [
          8.131716212738715,
          -1.636120488347984
        ]
      }
    },
    {
      "type": "Feature",
      "properties": {
        "norad_id": 37763,
        "name": "BEIDOU-2 IGSO-4 (C09)",
        "group": "gnss",
        "lat": -45.36385166297381,
        "lon": 33.362299540434016,
        "alt_km": 35170.59546496712,
        "timestamp": "2025-12-27T14:26:30.763592+00:00",
        "meta_object_name": "BEIDOU-2 IGSO-4 (C09)",
        "meta_object_id": "2011-038A",
        "meta_epoch": "2025-12-26T23:21:51.633792",
        "meta_mean_motion": 1.00276208,
        "meta_eccentricity": 0.01496647,
        "meta_inclination": 54.5847,
        "meta_ra_of_asc_node": 167.22,
        "meta_arg_of_pericenter": 230.2504,
        "meta_mean_anomaly": 143.4727,
        "meta_ephemeris_type": 0,
        "meta_classification_type": "U",
        "meta_norad_cat_id": 37763,
        "meta_element_set_no": 999,
        "meta_rev_at_epoch": 5292,
        "meta_bstar": 0,
        "meta_mean_motion_dot": 7.7e-07,
        "meta_mean_motion_ddot": 0,
        "tle_line1": "1 37763U 11038A   25360.97351428  .00000077  00000+0  00000+0 0  9996",
        "tle_line2": "2 37763  54.5847 167.2200 0149664 230.2504 143.4727  1.00276208 52927"
      },
      "geometry": {
        "type": "Point",
        "coordinates": [
          33.362299540434016,
          -45.36385166297381
        ]
      }
    }
  ]
}